CCSDS_OMM_VERS = 2.0
CREATION_DATE  = 
ORIGINATOR     = 

OBJECT_NAME    = STARLINK-36850
OBJECT_ID      = 2026-044U
CENTER_NAME    = EARTH
REF_FRAME      = TEME
TIME_SYSTEM    = UTC
MEAN_ELEMENT_THEORY = SGP/SGP4

EPOCH          = 2026-03-27T13:13:14.512224
MEAN_MOTION    = 15.75220429
ECCENTRICITY   = .00013732
INCLINATION    = 97.2839
RA_OF_ASC_NODE = 47.5989
ARG_OF_PERICENTER = 86.8376
MEAN_ANOMALY   = 273.3046

EPHEMERIS_TYPE = 0
CLASSIFICATION_TYPE = U
NORAD_CAT_ID   = 68119
ELEMENT_SET_NO = 999
REV_AT_EPOCH   = 429
BSTAR          = .11020915E-2
MEAN_MOTION_DOT = .167743E-2
MEAN_MOTION_DDOT = 0

CCSDS_OMM_VERS = 2.0
CREATION_DATE  = 
ORIGINATOR     = 

OBJECT_NAME    = STARLINK-36868
OBJECT_ID      = 2026-044V
CENTER_NAME    = EARTH
REF_FRAME      = TEME
TIME_SYSTEM    = UTC
MEAN_ELEMENT_THEORY = SGP/SGP4

EPOCH          = 2026-03-27T14:42:41.629248
MEAN_MOTION    = 15.75223444
ECCENTRICITY   = .00019551
INCLINATION    = 97.2840
RA_OF_ASC_NODE = 47.6672
ARG_OF_PERICENTER = 75.0034
MEAN_ANOMALY   = 285.1448

EPHEMERIS_TYPE = 0
CLASSIFICATION_TYPE = U
NORAD_CAT_ID   = 68120
ELEMENT_SET_NO = 999
REV_AT_EPOCH   = 430
BSTAR          = .11341215E-2
MEAN_MOTION_DOT = .172751E-2
MEAN_MOTION_DDOT = 0

CCSDS_OMM_VERS = 2.0
CREATION_DATE  = 
ORIGINATOR     = 

OBJECT_NAME    = STARLINK-36855
OBJECT_ID      = 2026-044W
CENTER_NAME    = EARTH
REF_FRAME      = TEME
TIME_SYSTEM    = UTC
MEAN_ELEMENT_THEORY = SGP/SGP4

EPOCH          = 2026-03-27T13:10:11.437536
MEAN_MOTION    = 15.75242860
ECCENTRICITY   = .00016657
INCLINATION    = 97.2841
RA_OF_ASC_NODE = 47.6020
ARG_OF_PERICENTER = 112.6884
MEAN_ANOMALY   = 247.4558

EPHEMERIS_TYPE = 0
CLASSIFICATION_TYPE = U
NORAD_CAT_ID   = 68121
ELEMENT_SET_NO = 999
REV_AT_EPOCH   = 429
BSTAR          = .12571705E-2
MEAN_MOTION_DOT = .192103E-2
MEAN_MOTION_DDOT = 0

CCSDS_OMM_VERS = 2.0
CREATION_DATE  = 
ORIGINATOR     = 

OBJECT_NAME    = STARLINK-36366
OBJECT_ID      = 2026-044X
CENTER_NAME    = EARTH
REF_FRAME      = TEME
TIME_SYSTEM    = UTC
MEAN_ELEMENT_THEORY = SGP/SGP4

EPOCH          = 2026-03-27T13:09:41.165568
MEAN_MOTION    = 15.75197982
ECCENTRICITY   = .00015479
INCLINATION    = 97.2842
RA_OF_ASC_NODE = 47.6027
ARG_OF_PERICENTER = 91.5221
MEAN_ANOMALY   = 268.6222

EPHEMERIS_TYPE = 0
CLASSIFICATION_TYPE = U
NORAD_CAT_ID   = 68122
ELEMENT_SET_NO = 999
REV_AT_EPOCH   = 429
BSTAR          = .67418711E-3
MEAN_MOTION_DOT = .101671E-2
MEAN_MOTION_DDOT = 0

CCSDS_OMM_VERS = 2.0
CREATION_DATE  = 
ORIGINATOR     = 

OBJECT_NAME    = STARLINK-36922
OBJECT_ID      = 2026-044Y
CENTER_NAME    = EARTH
REF_FRAME      = TEME
TIME_SYSTEM    = UTC
MEAN_ELEMENT_THEORY = SGP/SGP4

EPOCH          = 2026-03-27T13:06:07.830144
MEAN_MOTION    = 15.75205337
ECCENTRICITY   = .00015529
INCLINATION    = 97.2838
RA_OF_ASC_NODE = 47.6057
ARG_OF_PERICENTER = 85.3382
MEAN_ANOMALY   = 274.8060

EPHEMERIS_TYPE = 0
CLASSIFICATION_TYPE = U
NORAD_CAT_ID   = 68123
ELEMENT_SET_NO = 999
REV_AT_EPOCH   = 429
BSTAR          = .93223298E-3
MEAN_MOTION_DOT = .141338E-2
MEAN_MOTION_DDOT = 0

CCSDS_OMM_VERS = 2.0
CREATION_DATE  = 
ORIGINATOR     = 

OBJECT_NAME    = STARLINK-36938
OBJECT_ID      = 2026-044Z
CENTER_NAME    = EARTH
REF_FRAME      = TEME
TIME_SYSTEM    = UTC
MEAN_ELEMENT_THEORY = SGP/SGP4

EPOCH          = 2026-03-27T14:00:03.000384
MEAN_MOTION    = 15.77375691
ECCENTRICITY   = .0001857
INCLINATION    = 97.2839
RA_OF_ASC_NODE = 47.6969
ARG_OF_PERICENTER = 117.5550
MEAN_ANOMALY   = 212.7894

EPHEMERIS_TYPE = 0
CLASSIFICATION_TYPE = U
NORAD_CAT_ID   = 68124
ELEMENT_SET_NO = 999
REV_AT_EPOCH   = 427
BSTAR          = -.13553483E-1
MEAN_MOTION_DOT = -.193534E-1
MEAN_MOTION_DDOT = 0

CCSDS_OMM_VERS = 2.0
CREATION_DATE  = 
ORIGINATOR     = 

OBJECT_NAME    = STARLINK-36839
OBJECT_ID      = 2026-044AA
CENTER_NAME    = EARTH
REF_FRAME      = TEME
TIME_SYSTEM    = UTC
MEAN_ELEMENT_THEORY = SGP/SGP4

EPOCH          = 2026-03-27T13:07:39.281088
MEAN_MOTION    = 15.75200536
ECCENTRICITY   = .00015933
INCLINATION    = 97.2840
RA_OF_ASC_NODE = 47.6044
ARG_OF_PERICENTER = 86.3613
MEAN_ANOMALY   = 273.7834

EPHEMERIS_TYPE = 0
CLASSIFICATION_TYPE = U
NORAD_CAT_ID   = 68125
ELEMENT_SET_NO = 999
REV_AT_EPOCH   = 429
BSTAR          = .81089501E-3
MEAN_MOTION_DOT = .122629E-2
MEAN_MOTION_DDOT = 0

CCSDS_OMM_VERS = 2.0
CREATION_DATE  = 
ORIGINATOR     = 

OBJECT_NAME    = ECHOSTAR 25
OBJECT_ID      = 2026-045A
CENTER_NAME    = EARTH
REF_FRAME      = TEME
TIME_SYSTEM    = UTC
MEAN_ELEMENT_THEORY = SGP/SGP4

EPOCH          = 2026-03-27T11:07:38.822592
MEAN_MOTION    = 1.00271882
ECCENTRICITY   = .00023003
INCLINATION    = 0.0565
RA_OF_ASC_NODE = 281.2848
ARG_OF_PERICENTER = 106.2791
MEAN_ANOMALY   = 195.3285

EPHEMERIS_TYPE = 0
CLASSIFICATION_TYPE = U
NORAD_CAT_ID   = 68126
ELEMENT_SET_NO = 999
REV_AT_EPOCH   = 17
BSTAR          = 0
MEAN_MOTION_DOT = .4E-6
MEAN_MOTION_DDOT = 0

CCSDS_OMM_VERS = 2.0
CREATION_DATE  = 
ORIGINATOR     = 

OBJECT_NAME    = ICOR SV
OBJECT_ID      = 2026-046A
CENTER_NAME    = EARTH
REF_FRAME      = TEME
TIME_SYSTEM    = UTC
MEAN_ELEMENT_THEORY = SGP/SGP4

EPOCH          = 2026-03-27T10:44:05.843040
MEAN_MOTION    = 15.92835095
ECCENTRICITY   = .01078613
INCLINATION    = 123.0764
RA_OF_ASC_NODE = 286.5264
ARG_OF_PERICENTER = 218.0227
MEAN_ANOMALY   = 141.3195

EPHEMERIS_TYPE = 0
CLASSIFICATION_TYPE = U
NORAD_CAT_ID   = 68127
ELEMENT_SET_NO = 999
REV_AT_EPOCH   = 242
BSTAR          = .63848199E-3
MEAN_MOTION_DOT = .398663E-2
MEAN_MOTION_DDOT = .73242119E-4

CCSDS_OMM_VERS = 2.0
CREATION_DATE  = 
ORIGINATOR     = 

OBJECT_NAME    = FIREFLY ALPHA R/B
OBJECT_ID      = 2026-046B
CENTER_NAME    = EARTH
REF_FRAME      = TEME
TIME_SYSTEM    = UTC
MEAN_ELEMENT_THEORY = SGP/SGP4

EPOCH          = 2026-03-27T11:46:24.887712
MEAN_MOTION    = 15.57116646
ECCENTRICITY   = .00159077
INCLINATION    = 123.0944
RA_OF_ASC_NODE = 283.5792
ARG_OF_PERICENTER = 15.9629
MEAN_ANOMALY   = 344.1930

EPHEMERIS_TYPE = 0
CLASSIFICATION_TYPE = U
NORAD_CAT_ID   = 68128
ELEMENT_SET_NO = 999
REV_AT_EPOCH   = 241
BSTAR          = .51811178E-3
MEAN_MOTION_DOT = .38097E-3
MEAN_MOTION_DDOT = 0

CCSDS_OMM_VERS = 2.0
CREATION_DATE  = 
ORIGINATOR     = 

OBJECT_NAME    = GUOWANG GROUP 20 OBJECT A
OBJECT_ID      = 2026-047A
CENTER_NAME    = EARTH
REF_FRAME      = TEME
TIME_SYSTEM    = UTC
MEAN_ELEMENT_THEORY = SGP/SGP4

EPOCH          = 2026-03-27T07:56:57.543648
MEAN_MOTION    = 13.95700641
ECCENTRICITY   = .00032284
INCLINATION    = 50.0018
RA_OF_ASC_NODE = 358.7253
ARG_OF_PERICENTER = 358.1957
MEAN_ANOMALY   = 1.8932

EPHEMERIS_TYPE = 0
CLASSIFICATION_TYPE = U
NORAD_CAT_ID   = 68129
ELEMENT_SET_NO = 999
REV_AT_EPOCH   = 204
BSTAR          = .3051539E-4
MEAN_MOTION_DOT = -.106E-5
MEAN_MOTION_DDOT = 0

CCSDS_OMM_VERS = 2.0
CREATION_DATE  = 
ORIGINATOR     = 

OBJECT_NAME    = GUOWANG GROUP 20 OBJECT B
OBJECT_ID      = 2026-047B
CENTER_NAME    = EARTH
REF_FRAME      = TEME
TIME_SYSTEM    = UTC
MEAN_ELEMENT_THEORY = SGP/SGP4

EPOCH          = 2026-03-26T18:09:03.081024
MEAN_MOTION    = 13.96591410
ECCENTRICITY   = .00004277
INCLINATION    = 50.0066
RA_OF_ASC_NODE = 1.0171
ARG_OF_PERICENTER = 307.3036
MEAN_ANOMALY   = 52.7826

EPHEMERIS_TYPE = 0
CLASSIFICATION_TYPE = U
NORAD_CAT_ID   = 68130
ELEMENT_SET_NO = 999
REV_AT_EPOCH   = 195
BSTAR          = .55036004E-4
MEAN_MOTION_DOT = -.72E-6
MEAN_MOTION_DDOT = 0

