STARLINK-36850          
1 68119U 26044U   26086.55086241  .00167743  00000+0  11021-2 0  9998
2 68119  97.2839  47.5989 0001373  86.8376 273.3046 15.75220429  4296
STARLINK-36868          
1 68120U 26044V   26086.61298182  .00172751  00000+0  11341-2 0  9996
2 68120  97.2840  47.6672 0001955  75.0034 285.1448 15.75223444  4306
STARLINK-36855          
1 68121U 26044W   26086.54874349  .00192103  00000+0  12572-2 0  9994
2 68121  97.2841  47.6020 0001665 112.6884 247.4558 15.75242860  4298
STARLINK-36366          
1 68122U 26044X   26086.54839312  .00101671  00000+0  67419-3 0  9997
2 68122  97.2842  47.6027 0001547  91.5221 268.6222 15.75197982  4293
STARLINK-36922          
1 68123U 26044Y   26086.54592396  .00141338  00000+0  93223-3 0  9992
2 68123  97.2838  47.6057 0001552  85.3382 274.8060 15.75205337  4290
STARLINK-36938          
1 68124U 26044Z   26086.58336806 -.01935340  00000+0 -13553-1 0  9992
2 68124  97.2839  47.6969 0001857 117.5550 212.7894 15.77375691  4274
STARLINK-36839          
1 68125U 26044AA  26086.54698242  .00122629  00000+0  81090-3 0  9992
2 68125  97.2840  47.6044 0001593  86.3613 273.7834 15.75200536  4297
ECHOSTAR 25             
1 68126U 26045A   26086.46364378  .00000040  00000+0  00000+0 0  9995
2 68126   0.0565 281.2848 0002300 106.2791 195.3285  1.00271882   175
ICOR SV                 
1 68127U 26046A   26086.44728985  .00398663  73242-4  63848-3 0  9990
2 68127 123.0764 286.5264 0107861 218.0227 141.3195 15.92835095  2426
FIREFLY ALPHA R/B       
1 68128U 26046B   26086.49056583  .00038097  00000+0  51811-3 0  9990
2 68128 123.0944 283.5792 0015907  15.9629 344.1930 15.57116646  2413
GUOWANG GROUP 20 OBJECT*
1 68129U 26047A   26086.33122157 -.00000106  00000+0  30515-4 0  9996
2 68129  50.0018 358.7253 0003228 358.1957   1.8932 13.95700641  2043
GUOWANG GROUP 20 OBJECT*
1 68130U 26047B   26085.75628566 -.00000072  00000+0  55036-4 0  9995
2 68130  50.0066   1.0171 0000427 307.3036  52.7826 13.96591410  1956
